{
  "type": "FeatureCollection",
  "features": [
    {
      "type": "Feature",
      "properties": {
        "norad_id": 66661,
        "name": "SNUGLITE-III",
        "group": "last-30-days",
        "lat": -57.11926547421325,
        "lon": 88.58228795975317,
        "alt_km": 586.6056780167746,
        "timestamp": "2025-12-19T14:48:34.964669+00:00",
        "meta_object_name": "SNUGLITE-III",
        "meta_object_id": "2025-274M",
        "meta_epoch": "2025-12-19T04:05:47.445792",
        "meta_mean_motion": 14.93131354,
        "meta_eccentricity": 0.00131617,
        "meta_inclination": 97.7404,
        "meta_ra_of_asc_node": 280.2891,
        "meta_arg_of_pericenter": 258.3586,
        "meta_mean_anomaly": 101.6156,
        "meta_ephemeris_type": 0,
        "meta_classification_type": "U",
        "meta_norad_cat_id": 66661,
        "meta_element_set_no": 999,
        "meta_rev_at_epoch": 336,
        "meta_bstar": 0.00017599835,
        "meta_mean_motion_dot": 1.781e-05,
        "meta_mean_motion_ddot": 0,
        "tle_line1": "1 66661U 25274M   25353.17068803  .00001781  00000+0  17600-3 0  9999",
        "tle_line2": "2 66661  97.7404 280.2891 0013161 258.3586 101.6156 14.93131354  3363"
      },
      "geometry": {
        "type": "Point",
        "coordinates": [
          88.58228795975317,
          -57.11926547421325
        ]
      }
    },
    {
      "type": "Feature",
      "properties": {
        "norad_id": 66662,
        "name": "2025-274N",
        "group": "last-30-days",
        "lat": -61.65003560886792,
        "lon": 86.12959490966242,
        "alt_km": 585.9971458894515,
        "timestamp": "2025-12-19T14:48:34.964679+00:00",
        "meta_object_name": "2025-274N",
        "meta_object_id": "2025-274N",
        "meta_epoch": "2025-12-19T05:41:03.102144",
        "meta_mean_motion": 14.93185888,
        "meta_eccentricity": 0.00135967,
        "meta_inclination": 97.7405,
        "meta_ra_of_asc_node": 280.3564,
        "meta_arg_of_pericenter": 257.7942,
        "meta_mean_anomaly": 102.1755,
        "meta_ephemeris_type": 0,
        "meta_classification_type": "U",
        "meta_norad_cat_id": 66662,
        "meta_element_set_no": 999,
        "meta_rev_at_epoch": 337,
        "meta_bstar": 0.00017166232,
        "meta_mean_motion_dot": 1.738e-05,
        "meta_mean_motion_ddot": 0,
        "tle_line1": "1 66662U 25274N   25353.23684146  .00001738  00000+0  17166-3 0  9990",
        "tle_line2": "2 66662  97.7405 280.3564 0013596 257.7942 102.1755 14.93185888  3377"
      },
      "geometry": {
        "type": "Point",
        "coordinates": [
          86.12959490966242,
          -61.65003560886792
        ]
      }
    },
    {
      "type": "Feature",
      "properties": {
        "norad_id": 66663,
        "name": "KSLV-II R/B",
        "group": "last-30-days",
        "lat": -47.72124617120024,
        "lon": 92.28792443451187,
        "alt_km": 566.2441190392519,
        "timestamp": "2025-12-19T14:48:34.964691+00:00",
        "meta_object_name": "KSLV-II R/B",
        "meta_object_id": "2025-274P",
        "meta_epoch": "2025-12-19T04:09:57.323232",
        "meta_mean_motion": 14.97428246,
        "meta_eccentricity": 0.00565265,
        "meta_inclination": 97.7436,
        "meta_ra_of_asc_node": 280.4553,
        "meta_arg_of_pericenter": 296.8838,
        "meta_mean_anomaly": 62.6613,
        "meta_ephemeris_type": 0,
        "meta_classification_type": "U",
        "meta_norad_cat_id": 66663,
        "meta_element_set_no": 999,
        "meta_rev_at_epoch": 337,
        "meta_bstar": 0.000782208,
        "meta_mean_motion_dot": 9.347e-05,
        "meta_mean_motion_ddot": 0,
        "tle_line1": "1 66663U 25274P   25353.17358013  .00009347  00000+0  78221-3 0  9998",
        "tle_line2": "2 66663  97.7436 280.4553 0056526 296.8838  62.6613 14.97428246  3374"
      },
      "geometry": {
        "type": "Point",
        "coordinates": [
          92.28792443451187,
          -47.72124617120024
        ]
      }
    },
    {
      "type": "Feature",
      "properties": {
        "norad_id": 66664,
        "name": "SOYUZ-MS 28",
        "group": "last-30-days",
        "lat": -50.583939762020314,
        "lon": 2.9915048070969057,
        "alt_km": 420.1695848812233,
        "timestamp": "2025-12-19T14:48:34.964701+00:00",
        "meta_object_name": "SOYUZ-MS 28",
        "meta_object_id": "2025-275A",
        "meta_epoch": "2025-12-19T01:18:34.104096",
        "meta_mean_motion": 15.49660414,
        "meta_eccentricity": 0.00031768,
        "meta_inclination": 51.6316,
        "meta_ra_of_asc_node": 111.2076,
        "meta_arg_of_pericenter": 269.7772,
        "meta_mean_anomaly": 90.2853,
        "meta_ephemeris_type": 0,
        "meta_classification_type": "U",
        "meta_norad_cat_id": 66664,
        "meta_element_set_no": 999,
        "meta_rev_at_epoch": 128,
        "meta_bstar": 0.00012867135,
        "meta_mean_motion_dot": 6.809e-05,
        "meta_mean_motion_ddot": 0,
        "tle_line1": "1 66664U 25275A   25353.05456139  .00006809  00000+0  12867-3 0  9999",
        "tle_line2": "2 66664  51.6316 111.2076 0003176 269.7772  90.2853 15.49660414  1285"
      },
      "geometry": {
        "type": "Point",
        "coordinates": [
          2.9915048070969057,
          -50.583939762020314
        ]
      }
    },
    {
      "type": "Feature",
      "properties": {
        "norad_id": 66791,
        "name": "STARLINK-35867",
        "group": "last-30-days",
        "lat": -40.53596276052285,
        "lon": 96.85652146145829,
        "alt_km": 371.7188561184212,
        "timestamp": "2025-12-19T14:48:34.964711+00:00",
        "meta_object_name": "STARLINK-35867",
        "meta_object_id": "2025-278A",
        "meta_epoch": "2025-12-19T08:00:01.999872",
        "meta_mean_motion": 15.67526319,
        "meta_eccentricity": 0.00014726,
        "meta_inclination": 42.9989,
        "meta_ra_of_asc_node": 211.9575,
        "meta_arg_of_pericenter": 269.8667,
        "meta_mean_anomaly": 180.2128,
        "meta_ephemeris_type": 0,
        "meta_classification_type": "U",
        "meta_norad_cat_id": 66791,
        "meta_element_set_no": 999,
        "meta_rev_at_epoch": 401,
        "meta_bstar": -0.020351785,
        "meta_mean_motion_dot": -0.02004279,
        "meta_mean_motion_ddot": 0,
        "tle_line1": "1 66791U 25278A   25353.33335648 -.02004279  00000+0 -20352-1 0  9994",
        "tle_line2": "2 66791  42.9989 211.9575 0001472 269.8667 180.2128 15.67526319  4012"
      },
      "geometry": {
        "type": "Point",
        "coordinates": [
          96.85652146145829,
          -40.53596276052285
        ]
      }
    },
    {
      "type": "Feature",
      "properties": {
        "norad_id": 66792,
        "name": "STARLINK-35990",
        "group": "last-30-days",
        "lat": -41.02733838109838,
        "lon": 99.2889387813245,
        "alt_km": 371.7597091783373,
        "timestamp": "2025-12-19T14:48:34.964733+00:00",
        "meta_object_name": "STARLINK-35990",
        "meta_object_id": "2025-278B",
        "meta_epoch": "2025-12-19T08:00:01.999872",
        "meta_mean_motion": 15.67519932,
        "meta_eccentricity": 0.00015406,
        "meta_inclination": 42.9989,
        "meta_ra_of_asc_node": 211.9536,
        "meta_arg_of_pericenter": 279.1286,
        "meta_mean_anomaly": 172.8682,
        "meta_ephemeris_type": 0,
        "meta_classification_type": "U",
        "meta_norad_cat_id": 66792,
        "meta_element_set_no": 999,
        "meta_rev_at_epoch": 401,
        "meta_bstar": -0.020215539,
        "meta_mean_motion_dot": -0.01992068,
        "meta_mean_motion_ddot": 0,
        "tle_line1": "1 66792U 25278B   25353.33335648 -.01992068  00000+0 -20216-1 0  9995",
        "tle_line2": "2 66792  42.9989 211.9536 0001540 279.1286 172.8682 15.67519932  4012"
      },
      "geometry": {
        "type": "Point",
        "coordinates": [
          99.2889387813245,
          -41.02733838109838
        ]
      }
    },
    {
      "type": "Feature",
      "properties": {
        "norad_id": 66793,
        "name": "STARLINK-36051",
        "group": "last-30-days",
        "lat": -41.85561511584146,
        "lon": 104.2730936712236,
        "alt_km": 371.7629868358554,
        "timestamp": "2025-12-19T14:48:34.964745+00:00",
        "meta_object_name": "STARLINK-36051",
        "meta_object_id": "2025-278C",
        "meta_epoch": "2025-12-19T08:00:01.999872",
        "meta_mean_motion": 15.67526786,
        "meta_eccentricity": 0.00014616,
        "meta_inclination": 42.9991,
        "meta_ra_of_asc_node": 211.9432,
        "meta_arg_of_pericenter": 272.4244,
        "meta_mean_anomaly": 183.4058,
        "meta_ephemeris_type": 0,
        "meta_classification_type": "U",
        "meta_norad_cat_id": 66793,
        "meta_element_set_no": 999,
        "meta_rev_at_epoch": 391,
        "meta_bstar": -0.020358671,
        "meta_mean_motion_dot": -0.020049,
        "meta_mean_motion_ddot": 0,
        "tle_line1": "1 66793U 25278C   25353.33335648 -.02004900  00000+0 -20359-1 0  9994",
        "tle_line2": "2 66793  42.9991 211.9432 0001461 272.4244 183.4058 15.67526786  3911"
      },
      "geometry": {
        "type": "Point",
        "coordinates": [
          104.2730936712236,
          -41.85561511584146
        ]
      }
    }
  ]
}